{
  "type": "FeatureCollection",
  "features": [
    {
      "type": "Feature",
      "properties": {
        "norad_id": 35052,
        "name": "IRIDIUM 33 DEB",
        "group": "iridium-33-debris",
        "lat": -0.26329745474615074,
        "lon": -161.72035822648814,
        "alt_km": 769.798095817031,
        "timestamp": "2025-12-17T21:39:46.075232+00:00",
        "meta_object_name": "IRIDIUM 33 DEB",
        "meta_object_id": "1997-051NY",
        "meta_epoch": "2025-12-17T12:28:55.141824",
        "meta_mean_motion": 14.38497693,
        "meta_eccentricity": 0.00135167,
        "meta_inclination": 86.3305,
        "meta_ra_of_asc_node": 18.4267,
        "meta_arg_of_pericenter": 71.7027,
        "meta_mean_anomaly": 288.5641,
        "meta_ephemeris_type": 0,
        "meta_classification_type": "U",
        "meta_norad_cat_id": 35052,
        "meta_element_set_no": 999,
        "meta_rev_at_epoch": 87344,
        "meta_bstar": 0.00015333299,
        "meta_mean_motion_dot": 4.89e-06,
        "meta_mean_motion_ddot": 0,
        "tle_line1": "1 35052U 97051NY  25351.52008266  .00000489  00000+0  15333-3 0  9990",
        "tle_line2": "2 35052  86.3305  18.4267 0013516  71.7027 288.5641 14.38497693873444"
      },
      "geometry": {
        "type": "Point",
        "coordinates": [
          -161.72035822648814,
          -0.26329745474615074
        ]
      }
    },
    {
      "type": "Feature",
      "properties": {
        "norad_id": 35080,
        "name": "IRIDIUM 33 DEB",
        "group": "iridium-33-debris",
        "lat": 15.8108131353326,
        "lon": -131.16831085435652,
        "alt_km": 567.6723537058115,
        "timestamp": "2025-12-17T21:39:46.075242+00:00",
        "meta_object_name": "IRIDIUM 33 DEB",
        "meta_object_id": "1997-051PF",
        "meta_epoch": "2025-12-17T03:09:28.876608",
        "meta_mean_motion": 14.86585825,
        "meta_eccentricity": 0.00595754,
        "meta_inclination": 86.2077,
        "meta_ra_of_asc_node": 50.2767,
        "meta_arg_of_pericenter": 164.5881,
        "meta_mean_anomaly": 195.7176,
        "meta_ephemeris_type": 0,
        "meta_classification_type": "U",
        "meta_norad_cat_id": 35080,
        "meta_element_set_no": 999,
        "meta_rev_at_epoch": 69753,
        "meta_bstar": 0.0049196635,
        "meta_mean_motion_dot": 0.00045285,
        "meta_mean_motion_ddot": 0,
        "tle_line1": "1 35080U 97051PF  25351.13158422  .00045285  00000+0  49197-2 0  9995",
        "tle_line2": "2 35080  86.2077  50.2767 0059575 164.5881 195.7176 14.86585825697537"
      },
      "geometry": {
        "type": "Point",
        "coordinates": [
          -131.16831085435652,
          15.8108131353326
        ]
      }
    },
    {
      "type": "Feature",
      "properties": {
        "norad_id": 35297,
        "name": "IRIDIUM 33 DEB",
        "group": "iridium-33-debris",
        "lat": -31.04679132345238,
        "lon": -117.2634552528008,
        "alt_km": 746.6585408486617,
        "timestamp": "2025-12-17T21:39:46.075252+00:00",
        "meta_object_name": "IRIDIUM 33 DEB",
        "meta_object_id": "1997-051PM",
        "meta_epoch": "2025-12-16T11:27:21.167712",
        "meta_mean_motion": 14.45174956,
        "meta_eccentricity": 0.00178431,
        "meta_inclination": 86.3863,
        "meta_ra_of_asc_node": 61.1645,
        "meta_arg_of_pericenter": 129.6186,
        "meta_mean_anomaly": 230.6595,
        "meta_ephemeris_type": 0,
        "meta_classification_type": "U",
        "meta_norad_cat_id": 35297,
        "meta_element_set_no": 999,
        "meta_rev_at_epoch": 70480,
        "meta_bstar": 0.00045011402,
        "meta_mean_motion_dot": 1.598e-05,
        "meta_mean_motion_ddot": 0,
        "tle_line1": "1 35297U 97051PM  25350.47732833  .00001598  00000+0  45011-3 0  9996",
        "tle_line2": "2 35297  86.3863  61.1645 0017843 129.6186 230.6595 14.45174956704806"
      },
      "geometry": {
        "type": "Point",
        "coordinates": [
          -117.2634552528008,
          -31.04679132345238
        ]
      }
    },
    {
      "type": "Feature",
      "properties": {
        "norad_id": 35299,
        "name": "IRIDIUM 33 DEB",
        "group": "iridium-33-debris",
        "lat": 63.393139813193656,
        "lon": 38.38479682408985,
        "alt_km": 710.5266030238554,
        "timestamp": "2025-12-17T21:39:46.075261+00:00",
        "meta_object_name": "IRIDIUM 33 DEB",
        "meta_object_id": "1997-051PP",
        "meta_epoch": "2025-12-17T03:17:33.195264",
        "meta_mean_motion": 14.40883464,
        "meta_eccentricity": 0.00589054,
        "meta_inclination": 86.2885,
        "meta_ra_of_asc_node": 31.2723,
        "meta_arg_of_pericenter": 88.3983,
        "meta_mean_anomaly": 327.6495,
        "meta_ephemeris_type": 0,
        "meta_classification_type": "U",
        "meta_norad_cat_id": 35299,
        "meta_element_set_no": 999,
        "meta_rev_at_epoch": 86394,
        "meta_bstar": 0.00061427039,
        "meta_mean_motion_dot": 2.03e-05,
        "meta_mean_motion_ddot": 0,
        "tle_line1": "1 35299U 97051PP  25351.13718976  .00002030  00000+0  61427-3 0  9995",
        "tle_line2": "2 35299  86.2885  31.2723 0058905  88.3983 327.6495 14.40883464863949"
      },
      "geometry": {
        "type": "Point",
        "coordinates": [
          38.38479682408985,
          63.393139813193656
        ]
      }
    },
    {
      "type": "Feature",
      "properties": {
        "norad_id": 35480,
        "name": "IRIDIUM 33 DEB",
        "group": "iridium-33-debris",
        "lat": -30.985599893163954,
        "lon": 20.48203975392225,
        "alt_km": 738.0417192336245,
        "timestamp": "2025-12-17T21:39:46.075270+00:00",
        "meta_object_name": "IRIDIUM 33 DEB",
        "meta_object_id": "1997-051QA",
        "meta_epoch": "2025-12-15T08:30:57.118464",
        "meta_mean_motion": 14.49774703,
        "meta_eccentricity": 0.00160032,
        "meta_inclination": 86.3571,
        "meta_ra_of_asc_node": 23.7786,
        "meta_arg_of_pericenter": 97.0457,
        "meta_mean_anomaly": 263.2568,
        "meta_ephemeris_type": 0,
        "meta_classification_type": "U",
        "meta_norad_cat_id": 35480,
        "meta_element_set_no": 999,
        "meta_rev_at_epoch": 87069,
        "meta_bstar": 0.00045738518,
        "meta_mean_motion_dot": 1.785e-05,
        "meta_mean_motion_ddot": 0,
        "tle_line1": "1 35480U 97051QA  25349.35482776  .00001785  00000+0  45739-3 0  9998",
        "tle_line2": "2 35480  86.3571  23.7786 0016003  97.0457 263.2568 14.49774703870695"
      },
      "geometry": {
        "type": "Point",
        "coordinates": [
          20.48203975392225,
          -30.985599893163954
        ]
      }
    },
    {
      "type": "Feature",
      "properties": {
        "norad_id": 35484,
        "name": "IRIDIUM 33 DEB",
        "group": "iridium-33-debris",
        "lat": -33.46550029707137,
        "lon": -12.080465568657521,
        "alt_km": 588.144851857629,
        "timestamp": "2025-12-17T21:39:46.075279+00:00",
        "meta_object_name": "IRIDIUM 33 DEB",
        "meta_object_id": "1997-051QE",
        "meta_epoch": "2025-12-13T07:15:48.307680",
        "meta_mean_motion": 14.98714194,
        "meta_eccentricity": 0.00237352,
        "meta_inclination": 86.3615,
        "meta_ra_of_asc_node": 352.4822,
        "meta_arg_of_pericenter": 123.3819,
        "meta_mean_anomaly": 236.9688,
        "meta_ephemeris_type": 0,
        "meta_classification_type": "U",
        "meta_norad_cat_id": 35484,
        "meta_element_set_no": 999,
        "meta_rev_at_epoch": 62024,
        "meta_bstar": 0.0048114888,
        "meta_mean_motion_dot": 0.00058609,
        "meta_mean_motion_ddot": 0,
        "tle_line1": "1 35484U 97051QE  25347.30264245  .00058609  00000+0  48115-2 0  9991",
        "tle_line2": "2 35484  86.3615 352.4822 0023735 123.3819 236.9688 14.98714194620242"
      },
      "geometry": {
        "type": "Point",
        "coordinates": [
          -12.080465568657521,
          -33.46550029707137
        ]
      }
    },
    {
      "type": "Feature",
      "properties": {
        "norad_id": 35488,
        "name": "IRIDIUM 33 DEB",
        "group": "iridium-33-debris",
        "lat": 36.961536252313806,
        "lon": 115.7241184398072,
        "alt_km": 625.9692687153647,
        "timestamp": "2025-12-17T21:39:46.075289+00:00",
        "meta_object_name": "IRIDIUM 33 DEB",
        "meta_object_id": "1997-051QJ",
        "meta_epoch": "2025-12-17T14:32:45.548736",
        "meta_mean_motion": 14.83180169,
        "meta_eccentricity": 0.00292353,
        "meta_inclination": 86.3235,
        "meta_ra_of_asc_node": 298.6342,
        "meta_arg_of_pericenter": 27.0336,
        "meta_mean_anomaly": 333.2402,
        "meta_ephemeris_type": 0,
        "meta_classification_type": "U",
        "meta_norad_cat_id": 35488,
        "meta_element_set_no": 999,
        "meta_rev_at_epoch": 88338,
        "meta_bstar": 0.001310248,
        "meta_mean_motion_dot": 0.00010803,
        "meta_mean_motion_ddot": 0,
        "tle_line1": "1 35488U 97051QJ  25351.60608274  .00010803  00000+0  13102-2 0  9999",
        "tle_line2": "2 35488  86.3235 298.6342 0029235  27.0336 333.2402 14.83180169883381"
      },
      "geometry": {
        "type": "Point",
        "coordinates": [
          115.7241184398072,
          36.961536252313806
        ]
      }
    }
  ]
}